NETSAT-1                
1 46506U 20068W   20325.58410934  .00000247  00000-0  23575-4 0  9992
2 46506  97.6639 258.4442 0011635  81.0845 279.1728 15.01758564  7896
NETSAT-2                
1 46507U 20068X   20325.38471436  .00000154  00000-0  16408-4 0  9999
2 46507  97.6647 258.2486 0012093  82.1099 278.1494 15.01742318  7815
